{
  "type": "FeatureCollection",
  "features": [
    {
      "type": "Feature",
      "properties": {
        "norad_id": 58647,
        "name": "TIANMU-1 13",
        "group": "weather",
        "lat": 38.73772532327251,
        "lon": 3.778525433690578,
        "alt_km": 492.7258233954235,
        "timestamp": "2025-12-16T03:53:26.701724+00:00",
        "meta_object_name": "TIANMU-1 13",
        "meta_object_id": "2023-205C",
        "meta_epoch": "2025-12-15T08:49:00.551136",
        "meta_mean_motion": 15.24561203,
        "meta_eccentricity": 0.00060629,
        "meta_inclination": 97.3623,
        "meta_ra_of_asc_node": 8.9514,
        "meta_arg_of_pericenter": 255.2985,
        "meta_mean_anomaly": 104.7581,
        "meta_ephemeris_type": 0,
        "meta_classification_type": "U",
        "meta_norad_cat_id": 58647,
        "meta_element_set_no": 999,
        "meta_rev_at_epoch": 10947,
        "meta_bstar": 0.00019467455,
        "meta_mean_motion_dot": 4.725e-05,
        "meta_mean_motion_ddot": 0,
        "tle_line1": "1 58647U 23205C   25349.36736749  .00004725  00000+0  19467-3 0  9997",
        "tle_line2": "2 58647  97.3623   8.9514 0006062 255.2985 104.7581 15.24561203109475"
      },
      "geometry": {
        "type": "Point",
        "coordinates": [
          3.778525433690578,
          38.73772532327251
        ]
      }
    },
    {
      "type": "Feature",
      "properties": {
        "norad_id": 58648,
        "name": "TIANMU-1 14",
        "group": "weather",
        "lat": 49.41917170482292,
        "lon": -162.2476833813951,
        "alt_km": 490.61796489264725,
        "timestamp": "2025-12-16T03:53:26.701741+00:00",
        "meta_object_name": "TIANMU-1 14",
        "meta_object_id": "2023-205D",
        "meta_epoch": "2025-12-15T08:25:08.736384",
        "meta_mean_motion": 15.24544637,
        "meta_eccentricity": 0.00068384,
        "meta_inclination": 97.3556,
        "meta_ra_of_asc_node": 8.2814,
        "meta_arg_of_pericenter": 261.2392,
        "meta_mean_anomaly": 98.8071,
        "meta_ephemeris_type": 0,
        "meta_classification_type": "U",
        "meta_norad_cat_id": 58648,
        "meta_element_set_no": 999,
        "meta_rev_at_epoch": 10947,
        "meta_bstar": 0.0002069913,
        "meta_mean_motion_dot": 5.027e-05,
        "meta_mean_motion_ddot": 0,
        "tle_line1": "1 58648U 23205D   25349.35079556  .00005027  00000+0  20699-3 0  9998",
        "tle_line2": "2 58648  97.3556   8.2814 0006838 261.2392  98.8071 15.24544637109476"
      },
      "geometry": {
        "type": "Point",
        "coordinates": [
          -162.2476833813951,
          49.41917170482292
        ]
      }
    },
    {
      "type": "Feature",
      "properties": {
        "norad_id": 58660,
        "name": "TIANMU-1 19",
        "group": "weather",
        "lat": 65.06673326531106,
        "lon": 84.86964376456879,
        "alt_km": 478.58807589933895,
        "timestamp": "2025-12-16T03:53:26.701757+00:00",
        "meta_object_name": "TIANMU-1 19",
        "meta_object_id": "2023-208A",
        "meta_epoch": "2025-12-15T07:10:08.053248",
        "meta_mean_motion": 15.27901283,
        "meta_eccentricity": 0.00041978,
        "meta_inclination": 97.4386,
        "meta_ra_of_asc_node": 100.3305,
        "meta_arg_of_pericenter": 241.5083,
        "meta_mean_anomaly": 118.5734,
        "meta_ephemeris_type": 0,
        "meta_classification_type": "U",
        "meta_norad_cat_id": 58660,
        "meta_element_set_no": 999,
        "meta_rev_at_epoch": 10921,
        "meta_bstar": 0.00024834793,
        "meta_mean_motion_dot": 6.69e-05,
        "meta_mean_motion_ddot": 0,
        "tle_line1": "1 58660U 23208A   25349.29870432  .00006690  00000+0  24835-3 0  9993",
        "tle_line2": "2 58660  97.4386 100.3305 0004197 241.5083 118.5734 15.27901283109210"
      },
      "geometry": {
        "type": "Point",
        "coordinates": [
          84.86964376456879,
          65.06673326531106
        ]
      }
    },
    {
      "type": "Feature",
      "properties": {
        "norad_id": 58661,
        "name": "TIANMU-1 20",
        "group": "weather",
        "lat": 24.67201115652189,
        "lon": -74.91921928987857,
        "alt_km": 478.44682652534993,
        "timestamp": "2025-12-16T03:53:26.701773+00:00",
        "meta_object_name": "TIANMU-1 20",
        "meta_object_id": "2023-208B",
        "meta_epoch": "2025-12-15T08:22:03.758304",
        "meta_mean_motion": 15.29092744,
        "meta_eccentricity": 0.00063573,
        "meta_inclination": 97.4323,
        "meta_ra_of_asc_node": 100.8304,
        "meta_arg_of_pericenter": 254.9892,
        "meta_mean_anomaly": 105.0645,
        "meta_ephemeris_type": 0,
        "meta_classification_type": "U",
        "meta_norad_cat_id": 58661,
        "meta_element_set_no": 999,
        "meta_rev_at_epoch": 10929,
        "meta_bstar": 0.0002507377,
        "meta_mean_motion_dot": 7.009e-05,
        "meta_mean_motion_ddot": 0,
        "tle_line1": "1 58661U 23208B   25349.34865461  .00007009  00000+0  25074-3 0  9997",
        "tle_line2": "2 58661  97.4323 100.8304 0006357 254.9892 105.0645 15.29092744109297"
      },
      "geometry": {
        "type": "Point",
        "coordinates": [
          -74.91921928987857,
          24.67201115652189
        ]
      }
    },
    {
      "type": "Feature",
      "properties": {
        "norad_id": 58662,
        "name": "TIANMU-1 21",
        "group": "weather",
        "lat": -10.714290304537217,
        "lon": -77.84943358051437,
        "alt_km": 473.0432855373547,
        "timestamp": "2025-12-16T03:53:26.701792+00:00",
        "meta_object_name": "TIANMU-1 21",
        "meta_object_id": "2023-208C",
        "meta_epoch": "2025-12-15T08:14:40.151328",
        "meta_mean_motion": 15.31611937,
        "meta_eccentricity": 0.00059409,
        "meta_inclination": 97.4372,
        "meta_ra_of_asc_node": 102.7455,
        "meta_arg_of_pericenter": 249.1592,
        "meta_mean_anomaly": 110.9014,
        "meta_ephemeris_type": 0,
        "meta_classification_type": "U",
        "meta_norad_cat_id": 58662,
        "meta_element_set_no": 999,
        "meta_rev_at_epoch": 10939,
        "meta_bstar": 0.00028049931,
        "meta_mean_motion_dot": 8.489e-05,
        "meta_mean_motion_ddot": 0,
        "tle_line1": "1 58662U 23208C   25349.34352027  .00008489  00000+0  28050-3 0  9997",
        "tle_line2": "2 58662  97.4372 102.7455 0005940 249.1592 110.9014 15.31611937109390"
      },
      "geometry": {
        "type": "Point",
        "coordinates": [
          -77.84943358051437,
          -10.714290304537217
        ]
      }
    },
    {
      "type": "Feature",
      "properties": {
        "norad_id": 58663,
        "name": "TIANMU-1 22",
        "group": "weather",
        "lat": 63.32095988672328,
        "lon": 86.18018631575988,
        "alt_km": 478.3032171480172,
        "timestamp": "2025-12-16T03:53:26.701811+00:00",
        "meta_object_name": "TIANMU-1 22",
        "meta_object_id": "2023-208D",
        "meta_epoch": "2025-12-15T07:10:25.075776",
        "meta_mean_motion": 15.27652207,
        "meta_eccentricity": 0.00026718,
        "meta_inclination": 97.4379,
        "meta_ra_of_asc_node": 100.3886,
        "meta_arg_of_pericenter": 273.5768,
        "meta_mean_anomaly": 86.5166,
        "meta_ephemeris_type": 0,
        "meta_classification_type": "U",
        "meta_norad_cat_id": 58663,
        "meta_element_set_no": 999,
        "meta_rev_at_epoch": 10922,
        "meta_bstar": 0.00023156075,
        "meta_mean_motion_dot": 6.184e-05,
        "meta_mean_motion_ddot": 0,
        "tle_line1": "1 58663U 23208D   25349.29890134  .00006184  00000+0  23156-3 0  9990",
        "tle_line2": "2 58663  97.4379 100.3886 0002671 273.5768  86.5166 15.27652207109222"
      },
      "geometry": {
        "type": "Point",
        "coordinates": [
          86.18018631575988,
          63.32095988672328
        ]
      }
    },
    {
      "type": "Feature",
      "properties": {
        "norad_id": 58700,
        "name": "TIANMU-1 15",
        "group": "weather",
        "lat": 24.901336582773283,
        "lon": -4.892897398643192,
        "alt_km": 493.6914964523712,
        "timestamp": "2025-12-16T03:53:26.701827+00:00",
        "meta_object_name": "TIANMU-1 15",
        "meta_object_id": "2024-004A",
        "meta_epoch": "2025-12-15T11:27:39.170880",
        "meta_mean_motion": 15.24523095,
        "meta_eccentricity": 0.0005662,
        "meta_inclination": 97.4625,
        "meta_ra_of_asc_node": 170.9368,
        "meta_arg_of_pericenter": 280.1287,
        "meta_mean_anomaly": 79.9311,
        "meta_ephemeris_type": 0,
        "meta_classification_type": "U",
        "meta_norad_cat_id": 58700,
        "meta_element_set_no": 999,
        "meta_rev_at_epoch": 10776,
        "meta_bstar": 0.0001928,
        "meta_mean_motion_dot": 4.672e-05,
        "meta_mean_motion_ddot": 0,
        "tle_line1": "1 58700U 24004A   25349.47753670  .00004672  00000+0  19280-3 0  9993",
        "tle_line2": "2 58700  97.4625 170.9368 0005662 280.1287  79.9311 15.24523095107763"
      },
      "geometry": {
        "type": "Point",
        "coordinates": [
          -4.892897398643192,
          24.901336582773283
        ]
      }
    }
  ]
}